STARLINK-2229           
1 47992U 21024R   24094.51936081  .00020392  00000+0  13839-2 0  9993
2 47992  53.0525 182.3384 0001254  80.1230 279.9900 15.06400284169347
STARLINK-2273           
1 47993U 21024S   24094.52671807  .00002748  00000+0  20330-3 0  9997
2 47993  53.0537 222.2173 0001155  82.2503 277.8617 15.06398454168837
STARLINK-2290           
1 47994U 21024T   24094.39817900  .00003664  00000+0  26483-3 0  9992
2 47994  53.0535 237.7899 0001150  85.6072 274.5049 15.06388268168548
STARLINK-2309           
1 47995U 21024U   24094.53966222 -.00000478  00000+0 -13228-4 0  9997
2 47995  53.0545 202.4813 0001396  94.4220 265.6929 15.06392263169066
STARLINK-2260           
1 47996U 21024V   24094.58158537 -.00005374  00000+0 -34234-3 0  9994
2 47996  53.0536 127.2726 0001455  89.2923 270.8233 15.06376525170175
STARLINK-2266           
1 47997U 21024W   24094.77782761  .00002327  00000+0  17508-3 0  9996
2 47997  53.0551 236.0883 0001046  83.3306 276.7802 15.06394616168144
STARLINK-2296           
1 47998U 21024X   24094.58665582  .00004774  00000+0  33921-3 0  9992
2 47998  53.0532 212.1941 0001271  78.6336 281.4796 15.06397498168926
STARLINK-2218           
1 47999U 21024Y   24094.58334491  .00218352  00000+0  74905-2 0  9990
2 47999  53.0583 179.2985 0001114  59.7338 127.4730 15.28776397  5652
STARLINK-2270           
1 48000U 21024Z   24094.60002180  .00011424  00000+0  78428-3 0  9990
2 48000  53.0528 167.0900 0001453  84.4615 275.6539 15.06414027169093
STARLINK-2265           
1 48002U 21024AB  24094.49497503  .00002170  00000+0  16450-3 0  9991
2 48002  53.0542 187.6794 0001306 107.1208 252.9924 15.06399005169250
STARLINK-2263           
1 48003U 21024AC  24094.48248730  .00001503  00000+0  11978-3 0  9996
2 48003  53.0546 262.4152 0001210  83.6241 276.4886 15.06398005168205
STARLINK-2254           
1 48005U 21024AE  24094.58334491  .00087483  00000+0  30450-2 0  9995
2 48005  53.0542 228.7098 0000963  59.8313 130.3140 15.28959875  5838
STARLINK-2271           
1 48008U 21024AH  24094.61378366  .00000402  00000+0  45868-4 0  9998
2 48008  53.0536 166.8264 0001498  87.9326 272.1834 15.06406569169098
STARLINK-2153           
1 48009U 21024AJ  24094.67231343  .00001354  00000+0  10978-3 0  9998
2 48009  53.0530 241.5615 0001029  88.8298 271.2808 15.06393554168057
STARLINK-2226           
1 48010U 21024AK  24094.48617187  .00003837  00000+0  27641-3 0  9996
2 48010  53.0536 262.3982 0001301  97.0707 263.0430 15.06388041168216
STARLINK-2272           
1 48011U 21024AL  24094.58334491  .00673345  00000+0  27905-1 0  9990
2 48011  53.0522 241.6084 0001298  70.1235 154.8099 15.21181346  5762
STARLINK-2243           
1 48013U 21024AN  24094.73082810  .00003532  00000+0  25597-3 0  9996
2 48013  53.0542 226.2984 0001427  95.5297 264.5855 15.06392206168274
STARLINK-2283           
1 48014U 21024AP  24094.68063101  .00011736  00000+0  80487-3 0  9997
2 48014  53.0528 191.6882 0001237  60.1265 299.9846 15.06427959168741
STARLINK-2284           
1 48016U 21024AR  24094.51062080  .00000993  00000+0  85522-4 0  9995
2 48016  53.0525 177.4888 0001316  80.8854 279.2284 15.06397164169459
STARLINK-2282           
1 48018U 21024AT  24094.16873424  .00009407  00000+0  64929-3 0  9996
2 48018  53.0537 249.0246 0001064  95.3894 264.7216 15.06415547168430
STARLINK-2285           
1 48019U 21024AU  24094.78151260  .00002889  00000+0  21273-3 0  9994
2 48019  53.0529 236.0707 0001135  85.1928 274.9190 15.06398610168147
STARLINK-2294           
1 48020U 21024AV  24094.55901045  .00014823  00000+0  10122-2 0  9996
2 48020  53.0531 192.4662 0001497  83.0945 277.0215 15.06388790169190
STARLINK-2301           
1 48021U 21024AW  24094.57046214  .00000287  00000+0  38164-4 0  9994
2 48021  53.0540 197.0070 0001394  88.0483 272.0666 15.06397543169149
STARLINK-2298           
1 48022U 21024AX  24094.86447755  .00002127  00000+0  16169-3 0  9997
2 48022  53.0538 255.9814 0001368  91.6571 268.4574 15.06392138167865
STARLINK-2292           
1 48023U 21024AY  24094.72069516  .00001448  00000+0  11612-3 0  9991
2 48023  53.0541 256.3413 0001301  91.5806 268.5331 15.06392568167844
STARLINK-2278           
1 48026U 21024BB  24094.83264848 -.00000782  00000+0 -33608-4 0  9993
2 48026  53.0548 260.8434 0001182  90.3066 269.8059 15.06387428167782
STARLINK-2300           
1 48027U 21024BC  24094.91667824  .00438894  86159-4  12296-2 0  9993
2 48027  53.0409 151.8232 0012282  18.6674 156.9687 15.92950587169338
STARLINK-2264           
1 48028U 21024BD  24094.51110473  .00001307  00000+0  10662-3 0  9990
2 48028  53.0531 192.6853 0001447  88.9718 271.1437 15.06389222169247
STARLINK-2299           
1 48029U 21024BE  24094.49953158  .00001468  00000+0  11745-3 0  9994
2 48029  53.0547 257.3370 0001711  89.1776 270.9409 15.06396730168347
STARLINK-2268           
1 48030U 21024BF  24094.72576109  .00001477  00000+0  11804-3 0  9995
2 48030  53.0551 261.3237 0001236  89.2324 270.8807 15.06396066167772
STARLINK-2267           
1 48031U 21024BG  24094.43228245  .00008528  00000+0  59059-3 0  9997
2 48031  53.0530 147.6398 0001156  68.6395 291.4717 15.06407887169814
STARLINK-2286           
1 48033U 21024BJ  24094.88656440  .00001306  00000+0  10657-3 0  9998
2 48033  53.0528 255.5994 0001310  87.2063 272.9076 15.06404049167878
STARLINK-2288           
1 48034U 21024BK  24094.44056219  .00002079  00000+0  15841-3 0  9997
2 48034  53.0538 257.6003 0001233  96.2005 263.9124 15.06396411168333
STARLINK-2295           
1 48036U 21024BM  24094.44793220  .00003817  00000+0  27502-3 0  9997
2 48036  53.0531 257.5649 0001096  98.6975 261.4138 15.06396803168335
STARLINK-2048           
1 48092U 21027A   24094.51938025  .00008175  00000+0  56741-3 0  9993
2 48092  53.0546  22.5282 0001401  86.5692 273.5457 15.06379226167177
STARLINK-2404           
1 48093U 21027B   24094.68110093  .00004320  00000+0  30875-3 0  9997
2 48093  53.0536  86.7239 0001405  78.9886 281.1261 15.06398485165898
STARLINK-2412           
1 48094U 21027C   24094.69855633 -.00000391  00000+0 -73332-5 0  9998
2 48094  53.0531  96.4428 0001364  87.0618 273.0527 15.06397898165768
STARLINK-2414           
1 48095U 21027D   24094.37421425  .00001075  00000+0  91037-4 0  9991
2 48095  53.0532  97.9006 0001401  80.0380 280.0767 15.06404920166129
STARLINK-2417           
1 48096U 21027E   24094.28207900  .00003669  00000+0  26512-3 0  9998
2 48096  53.0531  98.3145 0001313  68.2747 291.8382 15.06390429166092
STARLINK-2418           
1 48097U 21027F   24094.65987329  .00000024  00000+0  20499-4 0  9991
2 48097  53.0545  76.6161 0001398  92.7175 267.3974 15.06391078166035
STARLINK-2421           
1 48098U 21027G   24094.37144569 -.00000332  00000+0 -34124-5 0  9997
2 48098  53.0535  87.9114 0001403  88.3097 271.8052 15.06389245166242
STARLINK-2428           
1 48099U 21027H   24094.42580950 -.00000852  00000+0 -38324-4 0  9994
2 48099  53.0535  97.6667 0001415  87.3471 272.7680 15.06392671166112
STARLINK-2430           
1 48100U 21027J   24094.32077387  .00001388  00000+0  11210-3 0  9998
2 48100  53.0544  78.1395 0001431  90.4620 269.6533 15.06394550166385
STARLINK-2436           
1 48101U 21027K   24094.25723135  .00000422  00000+0  47257-4 0  9999
2 48101  53.0567  88.6269 0001373  99.5663 260.5481 15.06372120166234
STARLINK-2437           
1 48102U 21027L   24094.34657176  .00000119  00000+0  26905-4 0  9991
2 48102  53.0537  78.0223 0001393  91.8982 268.2166 15.06394602166386
STARLINK-2438           
1 48103U 21027M   24094.12099177  .00073922  00000+0  17241-2 0  9992
2 48103  53.0533  31.7291 0004362 115.4753 244.6703 15.41583300166628
STARLINK-2439           
1 48104U 21027N   24094.69808856  .00000329  00000+0  40997-4 0  9994
2 48104  53.0549  81.4435 0001365  93.1752 266.9393 15.06401358165971
STARLINK-2440           
1 48105U 21027P   24094.53917212  .00007194  00000+0  50132-3 0  9993
2 48105  53.0545  27.1591 0001610  91.9799 268.1374 15.06403760167118
STARLINK-2442           
1 48106U 21027Q   24094.32446113  .00003838  00000+0  27640-3 0  9997
2 48106  53.0533  78.1336 0001650  75.9617 284.1556 15.06402526166381
STARLINK-2443           
1 48107U 21027R   24094.27284961  .00000249  00000+0  35590-4 0  9990
2 48107  53.0549  78.3552 0001328  86.8721 273.2420 15.06391871166378
STARLINK-2444           
1 48108U 21027S   24094.58334491  .01364169  00000+0  11516-1 0  9993
2 48108  53.0495  81.8219 0001101 103.4562  25.0609 15.66649532  5714
STARLINK-2447           
1 48110U 21027U   24094.36778298  .00008804  00000+0  60908-3 0  9990
2 48110  53.0534  87.9269 0001549  86.6153 273.5014 15.06406544166252
STARLINK-2448           
1 48111U 21027V   24094.36039497  .00001979  00000+0  15171-3 0  9990
2 48111  53.0537  87.9334 0001335  83.6349 276.4792 15.06391977166254
STARLINK-2449           
1 48112U 21027W   24094.41983390  .00003462  00000+0  25110-3 0  9990
2 48112  53.0532 102.8600 0001292  92.9052 267.2085 15.06409129166048
STARLINK-2450           
1 48113U 21027X   24094.42213780  .00006783  00000+0  47406-3 0  9992
2 48113  53.0535  97.6836 0001236  42.6231 317.4853 15.06381067166101
STARLINK-2452           
1 48115U 21027Z   24094.81010295 -.00000642  00000+0 -24232-4 0  9996
2 48115  53.0538  85.9526 0001409  91.8138 268.3013 15.06375753165911
STARLINK-2454           
1 48116U 21027AA  24094.41845053  .00000753  00000+0  69424-4 0  9994
2 48116  53.0536  97.7014 0001375  89.7140 270.4007 15.06390845166113
STARLINK-2455           
1 48117U 21027AB  24094.32352195  .00001416  00000+0  11395-3 0  9995
2 48117  53.0541  78.1170 0001418  90.0269 270.0883 15.06387456166382
STARLINK-2458           
1 48118U 21027AC  24094.26916756 -.00000874  00000+0 -39835-4 0  9997
2 48118  53.0554  78.3706 0001450  89.8322 270.2833 15.06385367166371
